{
  "type": "FeatureCollection",
  "features": [
    {
      "type": "Feature",
      "properties": {
        "norad_id": 40118,
        "name": "GAOFEN-2",
        "group": "resource",
        "lat": 81.60641614264394,
        "lon": -51.93204101818021,
        "alt_km": 613.7949998840977,
        "timestamp": "2025-12-21T14:40:47.567862+00:00",
        "meta_object_name": "GAOFEN-2",
        "meta_object_id": "2014-049A",
        "meta_epoch": "2025-12-21T06:09:17.902944",
        "meta_mean_motion": 14.80621544,
        "meta_eccentricity": 0.0008744,
        "meta_inclination": 98.0378,
        "meta_ra_of_asc_node": 54.4399,
        "meta_arg_of_pericenter": 89.5153,
        "meta_mean_anomaly": 270.7061,
        "meta_ephemeris_type": 0,
        "meta_classification_type": "U",
        "meta_norad_cat_id": 40118,
        "meta_element_set_no": 999,
        "meta_rev_at_epoch": 61290,
        "meta_bstar": 6.8556189e-05,
        "meta_mean_motion_dot": 4.73e-06,
        "meta_mean_motion_ddot": 0,
        "tle_line1": "1 40118U 14049A   25355.25645721  .00000473  00000+0  68556-4 0  9991",
        "tle_line2": "2 40118  98.0378  54.4399 0008744  89.5153 270.7061 14.80621544612905"
      },
      "geometry": {
        "type": "Point",
        "coordinates": [
          -51.93204101818021,
          81.60641614264394
        ]
      }
    },
    {
      "type": "Feature",
      "properties": {
        "norad_id": 40143,
        "name": "YAOGAN-21",
        "group": "resource",
        "lat": -10.125456571709696,
        "lon": 39.82837653121946,
        "alt_km": 493.2016070609943,
        "timestamp": "2025-12-21T14:40:47.567872+00:00",
        "meta_object_name": "YAOGAN-21",
        "meta_object_id": "2014-053A",
        "meta_epoch": "2025-12-21T06:50:38.873760",
        "meta_mean_motion": 15.23753598,
        "meta_eccentricity": 0.00089276,
        "meta_inclination": 97.1743,
        "meta_ra_of_asc_node": 38.2271,
        "meta_arg_of_pericenter": 14.2764,
        "meta_mean_anomaly": 345.8724,
        "meta_ephemeris_type": 0,
        "meta_classification_type": "U",
        "meta_norad_cat_id": 40143,
        "meta_element_set_no": 999,
        "meta_rev_at_epoch": 62784,
        "meta_bstar": 0.00013608957,
        "meta_mean_motion_dot": 3.207e-05,
        "meta_mean_motion_ddot": 0,
        "tle_line1": "1 40143U 14053A   25355.28517215  .00003207  00000+0  13609-3 0  9999",
        "tle_line2": "2 40143  97.1743  38.2271 0008927  14.2764 345.8724 15.23753598627846"
      },
      "geometry": {
        "type": "Point",
        "coordinates": [
          39.82837653121946,
          -10.125456571709696
        ]
      }
    },
    {
      "type": "Feature",
      "properties": {
        "norad_id": 40275,
        "name": "YAOGAN-22",
        "group": "resource",
        "lat": 26.09004964166312,
        "lon": 133.8225237567468,
        "alt_km": 1205.0076976961836,
        "timestamp": "2025-12-21T14:40:47.567883+00:00",
        "meta_object_name": "YAOGAN-22",
        "meta_object_id": "2014-063A",
        "meta_epoch": "2025-12-21T03:35:36.881088",
        "meta_mean_motion": 13.15522896,
        "meta_eccentricity": 0.00060333,
        "meta_inclination": 100.7428,
        "meta_ra_of_asc_node": 138.6881,
        "meta_arg_of_pericenter": 228.0657,
        "meta_mean_anomaly": 131.9941,
        "meta_ephemeris_type": 0,
        "meta_classification_type": "U",
        "meta_norad_cat_id": 40275,
        "meta_element_set_no": 999,
        "meta_rev_at_epoch": 53640,
        "meta_bstar": 3.0794129e-05,
        "meta_mean_motion_dot": -3.5e-07,
        "meta_mean_motion_ddot": 0,
        "tle_line1": "1 40275U 14063A   25355.14973242 -.00000035  00000+0  30794-4 0  9999",
        "tle_line2": "2 40275 100.7428 138.6881 0006033 228.0657 131.9941 13.15522896536407"
      },
      "geometry": {
        "type": "Point",
        "coordinates": [
          133.8225237567468,
          26.09004964166312
        ]
      }
    },
    {
      "type": "Feature",
      "properties": {
        "norad_id": 40298,
        "name": "ASNARO",
        "group": "resource",
        "lat": -81.65309432113635,
        "lon": -170.48912450336053,
        "alt_km": 518.0625919812555,
        "timestamp": "2025-12-21T14:40:47.567893+00:00",
        "meta_object_name": "ASNARO",
        "meta_object_id": "2014-070A",
        "meta_epoch": "2025-12-21T05:36:40.449600",
        "meta_mean_motion": 15.19652292,
        "meta_eccentricity": 0.00056752,
        "meta_inclination": 97.3648,
        "meta_ra_of_asc_node": 70.9733,
        "meta_arg_of_pericenter": 99.8641,
        "meta_mean_anomaly": 260.3235,
        "meta_ephemeris_type": 0,
        "meta_classification_type": "U",
        "meta_norad_cat_id": 40298,
        "meta_element_set_no": 999,
        "meta_rev_at_epoch": 61698,
        "meta_bstar": 0.00029955752,
        "meta_mean_motion_dot": 6.324e-05,
        "meta_mean_motion_ddot": 0,
        "tle_line1": "1 40298U 14070A   25355.23380150  .00006324  00000+0  29956-3 0  9995",
        "tle_line2": "2 40298  97.3648  70.9733 0005675  99.8641 260.3235 15.19652292616984"
      },
      "geometry": {
        "type": "Point",
        "coordinates": [
          -170.48912450336053,
          -81.65309432113635
        ]
      }
    },
    {
      "type": "Feature",
      "properties": {
        "norad_id": 40310,
        "name": "YAOGAN-24",
        "group": "resource",
        "lat": -63.97366054307704,
        "lon": 143.75907030343902,
        "alt_km": 659.1648134524494,
        "timestamp": "2025-12-21T14:40:47.567903+00:00",
        "meta_object_name": "YAOGAN-24",
        "meta_object_id": "2014-072A",
        "meta_epoch": "2025-12-21T06:50:29.474304",
        "meta_mean_motion": 14.76193843,
        "meta_eccentricity": 0.00151204,
        "meta_inclination": 98.1227,
        "meta_ra_of_asc_node": 126.424,
        "meta_arg_of_pericenter": 112.4496,
        "meta_mean_anomaly": 247.8316,
        "meta_ephemeris_type": 0,
        "meta_classification_type": "U",
        "meta_norad_cat_id": 40310,
        "meta_element_set_no": 999,
        "meta_rev_at_epoch": 59747,
        "meta_bstar": 0.00012616317,
        "meta_mean_motion_dot": 8.21e-06,
        "meta_mean_motion_ddot": 0,
        "tle_line1": "1 40310U 14072A   25355.28506336  .00000821  00000+0  12616-3 0  9994",
        "tle_line2": "2 40310  98.1227 126.4240 0015120 112.4496 247.8316 14.76193843597473"
      },
      "geometry": {
        "type": "Point",
        "coordinates": [
          143.75907030343902,
          -63.97366054307704
        ]
      }
    },
    {
      "type": "Feature",
      "properties": {
        "norad_id": 40336,
        "name": "CBERS 4",
        "group": "resource",
        "lat": 1.3840345995015837,
        "lon": -126.4721215471731,
        "alt_km": 775.789994187192,
        "timestamp": "2025-12-21T14:40:47.567913+00:00",
        "meta_object_name": "CBERS 4",
        "meta_object_id": "2014-079A",
        "meta_epoch": "2025-12-21T07:09:35.697312",
        "meta_mean_motion": 14.35520503,
        "meta_eccentricity": 0.0001825,
        "meta_inclination": 98.3301,
        "meta_ra_of_asc_node": 53.0225,
        "meta_arg_of_pericenter": 103.2398,
        "meta_mean_anomaly": 256.8992,
        "meta_ephemeris_type": 0,
        "meta_classification_type": "U",
        "meta_norad_cat_id": 40336,
        "meta_element_set_no": 999,
        "meta_rev_at_epoch": 57843,
        "meta_bstar": 3.9951213e-05,
        "meta_mean_motion_dot": 7.3e-07,
        "meta_mean_motion_ddot": 0,
        "tle_line1": "1 40336U 14079A   25355.29832983  .00000073  00000+0  39951-4 0  9991",
        "tle_line2": "2 40336  98.3301  53.0225 0001825 103.2398 256.8992 14.35520503578437"
      },
      "geometry": {
        "type": "Point",
        "coordinates": [
          -126.4721215471731,
          1.3840345995015837
        ]
      }
    },
    {
      "type": "Feature",
      "properties": {
        "norad_id": 40362,
        "name": "YAOGAN-26",
        "group": "resource",
        "lat": -26.23054522062068,
        "lon": 172.46799814722428,
        "alt_km": 456.31642480699156,
        "timestamp": "2025-12-21T14:40:47.567923+00:00",
        "meta_object_name": "YAOGAN-26",
        "meta_object_id": "2014-088A",
        "meta_epoch": "2025-12-21T05:59:12.821280",
        "meta_mean_motion": 15.39578683,
        "meta_eccentricity": 0.00050725,
        "meta_inclination": 97.0633,
        "meta_ra_of_asc_node": 355.6212,
        "meta_arg_of_pericenter": 4.9119,
        "meta_mean_anomaly": 355.2177,
        "meta_ephemeris_type": 0,
        "meta_classification_type": "U",
        "meta_norad_cat_id": 40362,
        "meta_element_set_no": 999,
        "meta_rev_at_epoch": 61025,
        "meta_bstar": 0.00043109602,
        "meta_mean_motion_dot": 0.00016908,
        "meta_mean_motion_ddot": 0,
        "tle_line1": "1 40362U 14088A   25355.24945395  .00016908  00000+0  43110-3 0  9992",
        "tle_line2": "2 40362  97.0633 355.6212 0005072   4.9119 355.2177 15.39578683610256"
      },
      "geometry": {
        "type": "Point",
        "coordinates": [
          172.46799814722428,
          -26.23054522062068
        ]
      }
    }
  ]
}